{
"type": "FeatureCollection",
"name": "2026-07-10_Polygone-KWP_06",
"crs": { "type": "name", "properties": { "name": "urn:ogc:def:crs:OGC:1.3:CRS84" } },
"features": [
{ "type": "Feature", "properties": { "fid": 101, "id": 101 }, "geometry": { "type": "MultiPolygon", "coordinates": [ [ [ [ 8.568061630499173, 49.7085751831154 ], [ 8.569260394732853, 49.706734176208485 ], [ 8.571157922984433, 49.70742378874629 ], [ 8.572919365740455, 49.70807916113727 ], [ 8.57260415087188, 49.708461418165093 ], [ 8.572655793766256, 49.708499529340969 ], [ 8.573081234212959, 49.708142958918046 ], [ 8.573327267724077, 49.708240773765873 ], [ 8.57286221837141, 49.708668826881528 ], [ 8.574536236144969, 49.711181830595734 ], [ 8.5761819170186, 49.710227208253713 ], [ 8.577444288863617, 49.708512752255906 ], [ 8.576677396072615, 49.707043687594435 ], [ 8.578163911087005, 49.706442380740278 ], [ 8.579506253751024, 49.704475388213105 ], [ 8.580294970797318, 49.703416470592984 ], [ 8.578198493673764, 49.702448198026715 ], [ 8.575778845861686, 49.702793287241654 ], [ 8.574692340626763, 49.702233132901277 ], [ 8.574081530649224, 49.700764622311652 ], [ 8.571754553540098, 49.699441458134224 ], [ 8.57559871036317, 49.696624195927171 ], [ 8.576996005018849, 49.697286599783403 ], [ 8.578859706331562, 49.69810236629278 ], [ 8.581730286344477, 49.699680156825174 ], [ 8.58382628344779, 49.700698925145588 ], [ 8.586092876559608, 49.699999194701313 ], [ 8.591568445149692, 49.697743392244845 ], [ 8.594928966124412, 49.696693414815186 ], [ 8.594466767344723, 49.696034505400142 ], [ 8.589859582611817, 49.697029500646941 ], [ 8.586511371334984, 49.696613108253288 ], [ 8.585349516977592, 49.69574941863084 ], [ 8.583403532412634, 49.695439069745817 ], [ 8.581060473723474, 49.695986788555182 ], [ 8.57910271744214, 49.697041470165495 ], [ 8.577087113734052, 49.695770104317255 ], [ 8.579063202822134, 49.692591962766294 ], [ 8.57696326521523, 49.692078701779508 ], [ 8.574932048865099, 49.69262743545228 ], [ 8.572282600276944, 49.69256712028605 ], [ 8.570730521858064, 49.691802963251185 ], [ 8.568085604179423, 49.691236958875336 ], [ 8.567759961931161, 49.692803134648194 ], [ 8.567352318195885, 49.694824051510516 ], [ 8.565232563607736, 49.696535186278908 ], [ 8.563970980737729, 49.698148393937998 ], [ 8.5641119496628, 49.699817435304936 ], [ 8.566125129052288, 49.701341821719737 ], [ 8.568707387435607, 49.700239126042462 ], [ 8.569710023771204, 49.70145631708079 ], [ 8.567354850331581, 49.703318296797789 ], [ 8.565773669130037, 49.705789862939909 ], [ 8.566516367733668, 49.709938634732481 ], [ 8.559442301648438, 49.716232046210699 ], [ 8.549350860933462, 49.711288825622489 ], [ 8.546682551840419, 49.71314916446476 ], [ 8.546181278952877, 49.716737019289575 ], [ 8.551439427071015, 49.721560773698108 ], [ 8.555573970100783, 49.721425028035149 ], [ 8.558316708464307, 49.719969256778043 ], [ 8.563736398968899, 49.715641569247786 ], [ 8.566259059245301, 49.71256683425284 ], [ 8.569564680280848, 49.709061106405045 ], [ 8.568061630499173, 49.7085751831154 ] ] ], [ [ [ 8.589771945814254, 49.681974656244407 ], [ 8.587710883544151, 49.681512287612478 ], [ 8.586574393203009, 49.682291932464445 ], [ 8.587699126334842, 49.682902674722357 ], [ 8.588857519945464, 49.684145538442365 ], [ 8.589586524918479, 49.685487991438741 ], [ 8.586734484265415, 49.686387947745615 ], [ 8.58708130683228, 49.686844233958425 ], [ 8.588395426055337, 49.68811293698878 ], [ 8.591349809373714, 49.688957655579323 ], [ 8.589624231618004, 49.690266139731555 ], [ 8.592889031804516, 49.691288881477725 ], [ 8.596631428816407, 49.691125012642587 ], [ 8.598283707635746, 49.689234718958261 ], [ 8.601570111876375, 49.687628120002195 ], [ 8.600081786323075, 49.683805633963054 ], [ 8.599360618118736, 49.681477333660574 ], [ 8.596627338286435, 49.682200980949965 ], [ 8.593394226380896, 49.682113833197924 ], [ 8.589771945814254, 49.681974656244407 ] ] ], [ [ [ 8.60558477314132, 49.681617595995732 ], [ 8.606968426627118, 49.681552778610083 ], [ 8.607943501848089, 49.681423360942176 ], [ 8.610629259707203, 49.681135375891451 ], [ 8.612208421755485, 49.680979511193449 ], [ 8.613972932934955, 49.680786322156976 ], [ 8.61549857851853, 49.68062075401189 ], [ 8.616419993803605, 49.680497406951467 ], [ 8.616356190439571, 49.679941024141328 ], [ 8.616610641450922, 49.678548277829911 ], [ 8.616508513480353, 49.678530559321729 ], [ 8.616528588846116, 49.678454784212335 ], [ 8.616467754427436, 49.678449842658523 ], [ 8.616459890607901, 49.678520918101924 ], [ 8.616340681365005, 49.678507882972696 ], [ 8.615963288882773, 49.678505052067571 ], [ 8.615983427296772, 49.678421377095269 ], [ 8.615929910018469, 49.678414879488933 ], [ 8.615917063680754, 49.678500158669841 ], [ 8.615795195693039, 49.678515554756075 ], [ 8.615593238426968, 49.678497504204209 ], [ 8.615603276821464, 49.678459616730898 ], [ 8.615559511479526, 49.678451571289052 ], [ 8.61555674029211, 49.678494222982685 ], [ 8.615510564973274, 49.678483009455938 ], [ 8.615034974506303, 49.67796475865196 ], [ 8.615103337174407, 49.677941285382381 ], [ 8.615045287619983, 49.677892111405093 ], [ 8.615343609260938, 49.677731939273635 ], [ 8.615556934323168, 49.677543043641883 ], [ 8.615060378191682, 49.677291353893054 ], [ 8.615112975998485, 49.677259928045977 ], [ 8.615049236902053, 49.677237595723071 ], [ 8.615005173381315, 49.677267469879951 ], [ 8.614595076848296, 49.677090722099017 ], [ 8.615500999145672, 49.675836026686468 ], [ 8.616250792418553, 49.674923674085761 ], [ 8.615953141873431, 49.674692002396853 ], [ 8.615873257877553, 49.674633276187848 ], [ 8.614874962077549, 49.674023227400042 ], [ 8.61373081453941, 49.673387402967236 ], [ 8.613685893066386, 49.673372242794116 ], [ 8.612976895780443, 49.674509870285149 ], [ 8.612922781285439, 49.674579210927334 ], [ 8.613073354990341, 49.674627115144332 ], [ 8.614167344035776, 49.675142696230274 ], [ 8.614525532462091, 49.675107548276017 ], [ 8.614588709808118, 49.675123558892572 ], [ 8.614791153082674, 49.675386518102457 ], [ 8.613016768118097, 49.676235400655806 ], [ 8.612884751985995, 49.676302900882952 ], [ 8.612286856330936, 49.676168177874636 ], [ 8.612284697926659, 49.676133409904686 ], [ 8.612636732557409, 49.675341410943616 ], [ 8.612558947312928, 49.675325350391127 ], [ 8.612425765276626, 49.675539789364187 ], [ 8.61097691499784, 49.675253685303311 ], [ 8.610136173816061, 49.675042293472217 ], [ 8.609091559626039, 49.674751205804235 ], [ 8.608090477226394, 49.674498176840913 ], [ 8.607995775525778, 49.67476962222041 ], [ 8.607864582209631, 49.674734417299334 ], [ 8.607772191448865, 49.674718304070112 ], [ 8.60694182339623, 49.674431082486855 ], [ 8.606744833491538, 49.674705339697468 ], [ 8.606372161003216, 49.675026400573245 ], [ 8.606068038347148, 49.675300292412921 ], [ 8.605631951826631, 49.675633775425759 ], [ 8.604679333151536, 49.675409322658361 ], [ 8.604226063370431, 49.676058748545728 ], [ 8.603910155621893, 49.676582239778782 ], [ 8.603535497654367, 49.67714344980476 ], [ 8.603071839784231, 49.677868677059891 ], [ 8.602913076975428, 49.678228380450157 ], [ 8.602669849183258, 49.678195945535016 ], [ 8.601755635607171, 49.678034801955178 ], [ 8.601522407144044, 49.677970798340283 ], [ 8.601482106853814, 49.678134983161989 ], [ 8.600149572443177, 49.677915505402218 ], [ 8.600064297488146, 49.678812670012 ], [ 8.600151846405067, 49.680013797620219 ], [ 8.600338457181994, 49.681013022614351 ], [ 8.600158162560366, 49.681619132856909 ], [ 8.60031193164939, 49.681872468874943 ], [ 8.600994775564587, 49.681748420902643 ], [ 8.601152206447827, 49.681703537259494 ], [ 8.602063654059107, 49.681615030783469 ], [ 8.602818176172939, 49.68165870179083 ], [ 8.603333989963341, 49.681711030713835 ], [ 8.60558477314132, 49.681617595995732 ] ] ], [ [ [ 8.623132437317778, 49.6749482485587 ], [ 8.623292739707615, 49.674841327820374 ], [ 8.62341014161577, 49.674772188170849 ], [ 8.623974696443158, 49.674811943486965 ], [ 8.624011848696924, 49.675045909116747 ], [ 8.623765794671643, 49.675380077138989 ], [ 8.623422494343698, 49.675694968035927 ], [ 8.62314406596512, 49.676436678060512 ], [ 8.62286447399797, 49.676698053422818 ], [ 8.622856207533671, 49.677137275754589 ], [ 8.623539606880737, 49.677240621452057 ], [ 8.623539021417814, 49.677316461140734 ], [ 8.623580291282593, 49.677332395622742 ], [ 8.62359550993313, 49.677253443430381 ], [ 8.623683028976025, 49.67727110822176 ], [ 8.623801323051875, 49.677402635309022 ], [ 8.623725876864915, 49.677713656716165 ], [ 8.623693635161965, 49.678105400135124 ], [ 8.623584208789179, 49.678402090698221 ], [ 8.623620264247254, 49.678778255692137 ], [ 8.623415807027236, 49.678768110825601 ], [ 8.623400904859309, 49.678805983152188 ], [ 8.623546766354469, 49.678836478011 ], [ 8.623555908243574, 49.678913929331351 ], [ 8.623605402505014, 49.679441821108156 ], [ 8.623464128387965, 49.67944768199262 ], [ 8.623466270496701, 49.679485609739004 ], [ 8.623614837291226, 49.679481352586201 ], [ 8.623987876178806, 49.680049796037807 ], [ 8.623937666189013, 49.680245557017912 ], [ 8.624190268759461, 49.680328538686489 ], [ 8.624489965412778, 49.680620236770359 ], [ 8.624711697228237, 49.680918001566397 ], [ 8.625011935260934, 49.681140178607563 ], [ 8.625628291346356, 49.681420258334278 ], [ 8.625588263384479, 49.6815591717438 ], [ 8.625695137668396, 49.681594277918272 ], [ 8.625963475498416, 49.681531943610892 ], [ 8.626649015156547, 49.681682678688119 ], [ 8.627047085410847, 49.681850654664842 ], [ 8.627027018910796, 49.681927221584026 ], [ 8.627060994723612, 49.681942341301479 ], [ 8.627276985378169, 49.681879045355629 ], [ 8.627393674206976, 49.681904701354732 ], [ 8.627206098207255, 49.682232744304422 ], [ 8.627009456238978, 49.682472275964322 ], [ 8.626688559087558, 49.682401720619183 ], [ 8.626541390030789, 49.682540288919007 ], [ 8.62689165390865, 49.682591978904654 ], [ 8.627055740577857, 49.682788431342097 ], [ 8.628860806864834, 49.68366640740868 ], [ 8.631420457436374, 49.685241972688793 ], [ 8.637333490983231, 49.686524664532442 ], [ 8.637789418632998, 49.688093481127808 ], [ 8.638398242583715, 49.690067260452658 ], [ 8.640663189755854, 49.689417017746507 ], [ 8.643081720476156, 49.689070569787155 ], [ 8.644626004584302, 49.691047194913054 ], [ 8.639765192120485, 49.694925367953793 ], [ 8.642391115989302, 49.698219962511367 ], [ 8.648317326015263, 49.697934743369068 ], [ 8.644439403738852, 49.702770424063736 ], [ 8.648329486240115, 49.703844077572704 ], [ 8.652711310837065, 49.704824274054744 ], [ 8.659124054901335, 49.701961358531044 ], [ 8.664668514971593, 49.700561840541795 ], [ 8.671779817843078, 49.697953047803551 ], [ 8.673514307859929, 49.695025420800143 ], [ 8.668769423770366, 49.69359624379252 ], [ 8.663397473089335, 49.692721220893731 ], [ 8.657165914227804, 49.692197333501575 ], [ 8.651789633109191, 49.691979050695885 ], [ 8.648249489334296, 49.69113409793453 ], [ 8.649080014812265, 49.689442826394853 ], [ 8.648698727399694, 49.688278768918842 ], [ 8.645975339202058, 49.687689025174329 ], [ 8.644930823004339, 49.686649327984654 ], [ 8.643303560113942, 49.685380303428261 ], [ 8.641559866046615, 49.684060334373847 ], [ 8.64168195568114, 49.683352858339504 ], [ 8.64172630478644, 49.682619861122184 ], [ 8.640717781191427, 49.682010004745422 ], [ 8.638889056208379, 49.681675670472323 ], [ 8.637294118161323, 49.681342039712654 ], [ 8.635466386955308, 49.68088125187834 ], [ 8.635394894202642, 49.680021489435667 ], [ 8.633762404516686, 49.679510728031516 ], [ 8.632162042416564, 49.679910144205607 ], [ 8.630523460986383, 49.68020829427428 ], [ 8.628930552526105, 49.679621749453837 ], [ 8.629366978231428, 49.678586645685883 ], [ 8.62894786522078, 49.67734655786942 ], [ 8.630043073946474, 49.676768609625285 ], [ 8.631522660931088, 49.676874448966529 ], [ 8.633045015702224, 49.676474794348131 ], [ 8.63410063151419, 49.675972523833806 ], [ 8.635660004216136, 49.675825757094465 ], [ 8.637292954826227, 49.676260652022258 ], [ 8.638572702432702, 49.677048349436873 ], [ 8.640875811849291, 49.676423501255982 ], [ 8.642673176893904, 49.675695925746979 ], [ 8.644777158676336, 49.67565183751406 ], [ 8.647580148146341, 49.67591320668754 ], [ 8.650270106448106, 49.675643275671547 ], [ 8.651822021265735, 49.676532770280836 ], [ 8.654041287129418, 49.676716384943553 ], [ 8.656104386109449, 49.676950054453037 ], [ 8.656681620061914, 49.677962987736286 ], [ 8.656984034614451, 49.679278470371244 ], [ 8.658422142825231, 49.679763050584185 ], [ 8.659560428992956, 49.678552938038003 ], [ 8.659177561586928, 49.677591152472317 ], [ 8.658290576026191, 49.676299232336206 ], [ 8.659422075619148, 49.676049760303016 ], [ 8.662614557020575, 49.676337190796289 ], [ 8.664290552277409, 49.676215658822663 ], [ 8.664607244584808, 49.675483441396004 ], [ 8.662587319219538, 49.674643316525128 ], [ 8.659667279586914, 49.674407247139207 ], [ 8.657093950048438, 49.67472830285012 ], [ 8.654797031895498, 49.674519234585489 ], [ 8.652386692901244, 49.673829450237818 ], [ 8.650287871343599, 49.673165837269785 ], [ 8.648854588696107, 49.672049156376637 ], [ 8.64890609743971, 49.670304954889474 ], [ 8.647939060538883, 49.669366638540879 ], [ 8.646568640393102, 49.670348405649477 ], [ 8.646366001725131, 49.671434850590167 ], [ 8.645465318808455, 49.672089390804622 ], [ 8.643752682631098, 49.671907171090297 ], [ 8.641683542946476, 49.672532800933595 ], [ 8.642807633755192, 49.673294689811691 ], [ 8.642336108727285, 49.673849406307276 ], [ 8.640093810463286, 49.674171106263721 ], [ 8.63938823565832, 49.674763003882042 ], [ 8.638624397769421, 49.675329434827226 ], [ 8.637008591930083, 49.675210619005455 ], [ 8.635373221939197, 49.675104359298537 ], [ 8.63371543869904, 49.675389853892916 ], [ 8.631816211724558, 49.674758137964766 ], [ 8.631116240675084, 49.674594746985399 ], [ 8.62967546256554, 49.67451746706503 ], [ 8.628901524477275, 49.674477068761945 ], [ 8.628731229685476, 49.674459142556607 ], [ 8.628704147579192, 49.674498556573631 ], [ 8.628896354571701, 49.674516553039091 ], [ 8.629005530335641, 49.674567463925527 ], [ 8.629258304404555, 49.674625154649299 ], [ 8.629462241358761, 49.674701648973361 ], [ 8.629578242173068, 49.674815782501661 ], [ 8.629674621995649, 49.674948813572009 ], [ 8.629546721607175, 49.675119048129524 ], [ 8.629195739672166, 49.675168485912728 ], [ 8.629214688787133, 49.675238068062036 ], [ 8.629350312119691, 49.675333304230335 ], [ 8.629213151191038, 49.675440307430669 ], [ 8.628958593880885, 49.675616455863569 ], [ 8.628577283932962, 49.67581115767387 ], [ 8.628196211857416, 49.675974258320871 ], [ 8.627757281986355, 49.676061330149771 ], [ 8.627348292021333, 49.676053694659352 ], [ 8.627027774899771, 49.675938900425635 ], [ 8.626949476295481, 49.675989209296596 ], [ 8.626608660002479, 49.675981790782529 ], [ 8.626395612644487, 49.675823100319818 ], [ 8.626561755655414, 49.675747794588624 ], [ 8.626406319891705, 49.675696732182452 ], [ 8.626318185245038, 49.675759649165265 ], [ 8.626143562522163, 49.67567060368814 ], [ 8.625949511093461, 49.675575175059123 ], [ 8.62575579991257, 49.675435506261543 ], [ 8.625474731386733, 49.675257633841078 ], [ 8.625193082065195, 49.67515560046926 ], [ 8.624940553124821, 49.675066300994843 ], [ 8.625263681892653, 49.674839822197129 ], [ 8.625967441532481, 49.674507130188445 ], [ 8.626513776398463, 49.674382490760209 ], [ 8.62722600360142, 49.674214141926107 ], [ 8.627227839200676, 49.673973982678021 ], [ 8.627345764642055, 49.673835319225006 ], [ 8.627987931266206, 49.673913225528423 ], [ 8.62862981122105, 49.674029048162453 ], [ 8.628599488487717, 49.674174314035447 ], [ 8.628774591422179, 49.674200156018671 ], [ 8.628890493257002, 49.674326930201516 ], [ 8.63029185459653, 49.674464135348224 ], [ 8.632629235977639, 49.674458933550504 ], [ 8.634346088999182, 49.674085159120835 ], [ 8.634507969173194, 49.673276692820657 ], [ 8.633341444854699, 49.672994919289465 ], [ 8.631974253902287, 49.673496193332589 ], [ 8.630419159278148, 49.67308675211747 ], [ 8.630736913180083, 49.672278788249926 ], [ 8.633351896884188, 49.671604522250192 ], [ 8.633946049705431, 49.670291813101421 ], [ 8.63489640029325, 49.668221807312385 ], [ 8.635881466920015, 49.666708074810828 ], [ 8.635423718816709, 49.665417325297298 ], [ 8.63244346967875, 49.664216556732811 ], [ 8.631074604426731, 49.664970621206898 ], [ 8.629856692954743, 49.666357166466845 ], [ 8.627602517151882, 49.665717924838255 ], [ 8.626659065173067, 49.666852512945312 ], [ 8.625400866645242, 49.668390564565172 ], [ 8.624300340120083, 49.669676308191725 ], [ 8.621897658289678, 49.670597548878213 ], [ 8.621202389469753, 49.671094567761017 ], [ 8.620397036147816, 49.671970429977975 ], [ 8.619799640910205, 49.67364962688859 ], [ 8.619734911570857, 49.673832698329122 ], [ 8.619851527899622, 49.673864681883323 ], [ 8.62050755293175, 49.674037477218626 ], [ 8.622129907701774, 49.674557873379896 ], [ 8.622705238931518, 49.6747777939161 ], [ 8.623132437317778, 49.6749482485587 ] ] ], [ [ [ 8.676574394687158, 49.688301508065365 ], [ 8.677315083576358, 49.688253013222287 ], [ 8.678488397924228, 49.68759898440176 ], [ 8.679847208171575, 49.688361162377994 ], [ 8.679608593278044, 49.689093635752279 ], [ 8.680384279747361, 49.689651948968638 ], [ 8.682023042074407, 49.689327813951749 ], [ 8.683195826531069, 49.688749577500218 ], [ 8.682343178604016, 49.68803938923093 ], [ 8.680595514262485, 49.687149766443376 ], [ 8.680487400487046, 49.685809603542708 ], [ 8.68014219762712, 49.684974395135178 ], [ 8.678199369412839, 49.684160037853346 ], [ 8.676428870196945, 49.684908778942571 ], [ 8.67643265003546, 49.68507311258319 ], [ 8.676419278471528, 49.685253198594999 ], [ 8.676326058149064, 49.6853556400211 ], [ 8.676169731265823, 49.685426304343366 ], [ 8.676084477157836, 49.685429225988912 ], [ 8.676023512362153, 49.685441695698181 ], [ 8.676054802930054, 49.685497084258493 ], [ 8.676000839235416, 49.685555394393418 ], [ 8.675512277256853, 49.68578155080727 ], [ 8.67530830560095, 49.685692497489697 ], [ 8.674959063011274, 49.685476633826234 ], [ 8.674522535220589, 49.68520364276344 ], [ 8.673920502818072, 49.684917543930105 ], [ 8.673424609879659, 49.684783424151703 ], [ 8.672166547060817, 49.684640827147383 ], [ 8.672062003867934, 49.684615250690939 ], [ 8.671894454235057, 49.684543674790064 ], [ 8.67186325407947, 49.684475645109558 ], [ 8.671977750216321, 49.684469649339633 ], [ 8.671982843818894, 49.684436483138967 ], [ 8.671883001384446, 49.68443620031168 ], [ 8.671864466371391, 49.684295525135965 ], [ 8.671856076235755, 49.684094837559918 ], [ 8.671839934043609, 49.683960489271698 ], [ 8.671901631703822, 49.683839001766167 ], [ 8.672180375711257, 49.683670727900349 ], [ 8.67208086427485, 49.683621465246361 ], [ 8.672203152451759, 49.683542809931936 ], [ 8.672106023257195, 49.683501454191678 ], [ 8.671993454323168, 49.683583296991898 ], [ 8.671949940757424, 49.683535772839747 ], [ 8.672009276874336, 49.683403218368099 ], [ 8.67222490667452, 49.683204745047945 ], [ 8.672625666735405, 49.682997314609516 ], [ 8.672693213400217, 49.683092307343891 ], [ 8.672805525550636, 49.683048383858761 ], [ 8.672762478264449, 49.682931339993495 ], [ 8.67287953298171, 49.68290639019957 ], [ 8.673224767268039, 49.682989526402864 ], [ 8.673467727964987, 49.683072373259058 ], [ 8.673393976009516, 49.683176447284971 ], [ 8.673530131067505, 49.683208431785047 ], [ 8.673656376606772, 49.683265668683987 ], [ 8.674327246413403, 49.683450840660875 ], [ 8.675047119032889, 49.683591905406118 ], [ 8.675524869140981, 49.683523723599059 ], [ 8.67658003445305, 49.683046345942074 ], [ 8.676895079506341, 49.682541615652561 ], [ 8.675847155280527, 49.681931955618687 ], [ 8.676046830752044, 49.681199380152634 ], [ 8.675156301040561, 49.680362629416948 ], [ 8.673950918294253, 49.680005315138523 ], [ 8.673089236139631, 49.680685459346144 ], [ 8.671717980442891, 49.681819202574772 ], [ 8.670273866339073, 49.68219430737485 ], [ 8.668795920443497, 49.681810882734261 ], [ 8.667511076411779, 49.681680798664217 ], [ 8.665715418933962, 49.682181239307099 ], [ 8.663763530168822, 49.682731759590041 ], [ 8.661232437932476, 49.682522139469803 ], [ 8.658389324292388, 49.682362105036106 ], [ 8.658221783714271, 49.684030123008718 ], [ 8.660904923505484, 49.684796424721881 ], [ 8.662928910010624, 49.685105698931586 ], [ 8.664557719672045, 49.6862227690183 ], [ 8.667126602169322, 49.686634668553033 ], [ 8.673242805697486, 49.68538490265361 ], [ 8.675652498551107, 49.686301773251316 ], [ 8.675451954382508, 49.687160747302471 ], [ 8.676574394687158, 49.688301508065365 ] ] ], [ [ [ 8.616651588419812, 49.698734880033975 ], [ 8.61649871233633, 49.698660112649513 ], [ 8.61671717063072, 49.698139426679234 ], [ 8.61688748148552, 49.698165270597769 ], [ 8.616917581177244, 49.698054768220032 ], [ 8.616742274735572, 49.698044708091437 ], [ 8.616639920218361, 49.697431318572583 ], [ 8.616844826917506, 49.69739407594956 ], [ 8.616772622254818, 49.697283235110319 ], [ 8.616591924900105, 49.697339518084505 ], [ 8.616319900129426, 49.696929390028288 ], [ 8.616493114831664, 49.696895203091522 ], [ 8.616430580221285, 49.69679387421548 ], [ 8.61626454877929, 49.696843885139103 ], [ 8.616100060397239, 49.696697977460524 ], [ 8.615819303648262, 49.696469522472746 ], [ 8.615518215834081, 49.696348441221097 ], [ 8.615855208453278, 49.695622746414045 ], [ 8.615944488329411, 49.695420798861861 ], [ 8.618104085818585, 49.695851387484439 ], [ 8.618034448668116, 49.696034441122166 ], [ 8.618229110361726, 49.696060363387858 ], [ 8.618250230069055, 49.695851869276524 ], [ 8.619701584608846, 49.695900884720359 ], [ 8.619689868848345, 49.696153650755903 ], [ 8.619884729094322, 49.696154290439232 ], [ 8.619896295965065, 49.695920484234534 ], [ 8.620656690096576, 49.695866096219014 ], [ 8.62065408276681, 49.696201053642127 ], [ 8.621024170199426, 49.696221225533201 ], [ 8.620987459085635, 49.695930380233598 ], [ 8.621991083022646, 49.695921019941132 ], [ 8.621921411327783, 49.696110395900035 ], [ 8.622300751812613, 49.696193795038951 ], [ 8.622216046579991, 49.697065694188311 ], [ 8.621874936607572, 49.697077221278619 ], [ 8.621815839811246, 49.697159189773451 ], [ 8.622048794698102, 49.697273712193017 ], [ 8.622052263864258, 49.698082697663445 ], [ 8.621730780717275, 49.69807532804758 ], [ 8.62171026362458, 49.69820798334937 ], [ 8.621963249480325, 49.698253050129253 ], [ 8.621984537450297, 49.699276977327486 ], [ 8.622725494466788, 49.699222512275938 ], [ 8.622743220254423, 49.699450093925229 ], [ 8.62295772780768, 49.699431832093893 ], [ 8.622920415959481, 49.699216826931099 ], [ 8.623642127876726, 49.699130692815537 ], [ 8.623703957074733, 49.698694806188136 ], [ 8.623889181607508, 49.69868276760014 ], [ 8.62389824222462, 49.698771278550993 ], [ 8.625423446547607, 49.698731980442297 ], [ 8.628152215481794, 49.698664932012861 ], [ 8.630298668022531, 49.698292596802375 ], [ 8.629725202064989, 49.696824499420615 ], [ 8.63129156685692, 49.695843559129322 ], [ 8.631140845583008, 49.69516050713559 ], [ 8.630250643078766, 49.694348694188776 ], [ 8.628807958974283, 49.6944452012903 ], [ 8.627405399655077, 49.694390136791867 ], [ 8.626906134864006, 49.693427872220205 ], [ 8.626992587475398, 49.692315810405255 ], [ 8.628671914572401, 49.691840877931085 ], [ 8.628791130859106, 49.691537894512514 ], [ 8.627743810976355, 49.690902521291768 ], [ 8.626268458800006, 49.690189916647505 ], [ 8.62712097443351, 49.689064523324603 ], [ 8.629796798045536, 49.688200930982362 ], [ 8.629045911570071, 49.687022985880738 ], [ 8.627961457064902, 49.686159970696409 ], [ 8.627090952901998, 49.685348195283254 ], [ 8.626373035349005, 49.68496667399576 ], [ 8.626078317676482, 49.684020864214176 ], [ 8.625640112261371, 49.684003648242147 ], [ 8.624619442728688, 49.68372857906499 ], [ 8.624079355426197, 49.683502462762185 ], [ 8.623973331140363, 49.683356755667411 ], [ 8.623485576097684, 49.683449972847193 ], [ 8.623180397473524, 49.683866108579672 ], [ 8.62280174830047, 49.684964577683424 ], [ 8.622534539088297, 49.685507237754507 ], [ 8.62248816122378, 49.686464585262364 ], [ 8.622254130483853, 49.686495422782301 ], [ 8.622262843198708, 49.68662817377588 ], [ 8.622467357593527, 49.686635160759643 ], [ 8.622461239499785, 49.687425156081638 ], [ 8.622285847662308, 49.687430904317694 ], [ 8.62221658125415, 49.687569721069451 ], [ 8.622381987518674, 49.687595540987715 ], [ 8.622361745243879, 49.688322288914627 ], [ 8.622215647988245, 49.688318652382513 ], [ 8.622214692890282, 49.688441891620315 ], [ 8.621440515737314, 49.688404603026534 ], [ 8.621377736181376, 49.688334876476091 ], [ 8.621246128381568, 49.688347086390991 ], [ 8.621269377220491, 49.688489365137073 ], [ 8.621188203916082, 49.688906227611412 ], [ 8.621599928417327, 49.689830311030434 ], [ 8.620975965006233, 49.689891471896587 ], [ 8.620016869585003, 49.68982828801996 ], [ 8.61896577982724, 49.689694482242714 ], [ 8.6187638244959, 49.689670117185109 ], [ 8.618736738183715, 49.689707948738764 ], [ 8.618833488238865, 49.68979358881159 ], [ 8.618673306205437, 49.690033226057722 ], [ 8.618606040906995, 49.690225768201572 ], [ 8.618516089769496, 49.690204931561944 ], [ 8.61849879425953, 49.690236475187014 ], [ 8.618583565447173, 49.690296795524993 ], [ 8.618464264113511, 49.690602928334961 ], [ 8.619402951244407, 49.690786140235325 ], [ 8.620546977284141, 49.690873635652359 ], [ 8.620488660269009, 49.6914817559135 ], [ 8.620429775756929, 49.692162555566064 ], [ 8.620404681908379, 49.692257275073707 ], [ 8.6203896009405, 49.692317266752482 ], [ 8.619489035333928, 49.692238470107831 ], [ 8.619504882113549, 49.6920805192484 ], [ 8.619446626306692, 49.692055047378169 ], [ 8.619382068226818, 49.692212838158092 ], [ 8.618919559672738, 49.692179716682574 ], [ 8.618954769126775, 49.692037629896241 ], [ 8.618852624413558, 49.692018333438874 ], [ 8.618783143922871, 49.692182427805207 ], [ 8.617741073739431, 49.692134752294869 ], [ 8.616785048500532, 49.693534658817391 ], [ 8.616562511249906, 49.693957370020662 ], [ 8.616338755537306, 49.693915548274354 ], [ 8.61627423466644, 49.694067017290763 ], [ 8.614991746809231, 49.693923718571263 ], [ 8.614936176479322, 49.693866652789659 ], [ 8.614902526989985, 49.693809659869608 ], [ 8.614812595820878, 49.693785660379632 ], [ 8.614724994207826, 49.693775098814868 ], [ 8.614664940051282, 49.693977142725444 ], [ 8.614601586920074, 49.694596303212407 ], [ 8.614499760776823, 49.695152134409064 ], [ 8.614022513464516, 49.695131584587145 ], [ 8.610592341512607, 49.695208584089308 ], [ 8.609345869542478, 49.695128545126849 ], [ 8.606894152167534, 49.694690481796243 ], [ 8.603841211176668, 49.693909025263821 ], [ 8.603451817918485, 49.693869771984374 ], [ 8.603488217197736, 49.694185902443841 ], [ 8.606443640123226, 49.69497967713653 ], [ 8.610335491153405, 49.69565012823282 ], [ 8.61053245494595, 49.699044691027616 ], [ 8.610531267884696, 49.699193209629222 ], [ 8.610609141005243, 49.699202951627655 ], [ 8.610644253620721, 49.699076667463487 ], [ 8.611793480833663, 49.699145306209829 ], [ 8.611752844713367, 49.69935373363289 ], [ 8.611869667748964, 49.699366765395048 ], [ 8.611920046984991, 49.69915837057809 ], [ 8.61334625652866, 49.699317983216794 ], [ 8.613306078286147, 49.699469531714648 ], [ 8.613398517776133, 49.699485640577308 ], [ 8.613458183026733, 49.699334157084948 ], [ 8.614022938774207, 49.699383441326738 ], [ 8.614113934870387, 49.69896661728388 ], [ 8.614235604392663, 49.698982822862774 ], [ 8.614205548074446, 49.699087004566465 ], [ 8.61425896272844, 49.69910930285868 ], [ 8.61431350294329, 49.698989402400194 ], [ 8.616025981633422, 49.699298457535377 ], [ 8.616441717109245, 49.698783166063542 ], [ 8.616604697546451, 49.698812146172301 ], [ 8.616651588419812, 49.698734880033975 ] ] ], [ [ [ 8.60435635892504, 49.704410070688596 ], [ 8.601039512120842, 49.709606458144542 ], [ 8.606100727006499, 49.710432752989163 ], [ 8.610588849842042, 49.714695032930294 ], [ 8.610740351962335, 49.715251710341462 ], [ 8.61252853807121, 49.715914995347013 ], [ 8.617049537643721, 49.71613227306667 ], [ 8.621338221772131, 49.716146372185122 ], [ 8.623519598835708, 49.716406286175584 ], [ 8.626873753295369, 49.716265457019503 ], [ 8.632021340615578, 49.716130241964343 ], [ 8.635767979717777, 49.715636476467907 ], [ 8.638036782935201, 49.714632374016333 ], [ 8.632746002898253, 49.713098898202638 ], [ 8.628227912978019, 49.712528316936641 ], [ 8.625271652428838, 49.711659257980507 ], [ 8.62722822877145, 49.710704916767206 ], [ 8.628024119852261, 49.708583922898875 ], [ 8.629286166208928, 49.706666658946389 ], [ 8.63560668372798, 49.705928303776318 ], [ 8.640205571421513, 49.706043802209066 ], [ 8.643779167168772, 49.707773914391836 ], [ 8.644943451547777, 49.708485340007996 ], [ 8.645009256426537, 49.710154046836522 ], [ 8.645078749764696, 49.711317157025832 ], [ 8.644048161481019, 49.713639788384434 ], [ 8.648641598121115, 49.714614466486964 ], [ 8.648240042755893, 49.716231190319448 ], [ 8.650339962604484, 49.716995958614653 ], [ 8.652442474545358, 49.717406771681738 ], [ 8.654627304273685, 49.717211063815071 ], [ 8.655185680926616, 49.715443103121487 ], [ 8.657440206991238, 49.716410445622977 ], [ 8.66032570334486, 49.716368382334409 ], [ 8.661894717067163, 49.715007834037024 ], [ 8.659798232046818, 49.713737678044687 ], [ 8.656134949880459, 49.713524618163206 ], [ 8.653646671251254, 49.712556550924091 ], [ 8.652722920061452, 49.710885280879715 ], [ 8.654747578554177, 49.7112452585665 ], [ 8.657086635413165, 49.711252206876971 ], [ 8.660288637350863, 49.710503231008659 ], [ 8.659677968417794, 49.708630690782819 ], [ 8.655005477290171, 49.707858456684257 ], [ 8.651104063054886, 49.708301817554322 ], [ 8.649868634650685, 49.706629584123377 ], [ 8.644503708950134, 49.70464137146142 ], [ 8.640548932650789, 49.704414282441022 ], [ 8.638910888652955, 49.704535589429675 ], [ 8.636380094943577, 49.704148465915182 ], [ 8.634649816607226, 49.703574211805552 ], [ 8.63329043703232, 49.702925265395301 ], [ 8.633418211204654, 49.701484686090446 ], [ 8.635450657184117, 49.700732688294373 ], [ 8.638666159985384, 49.700742764302738 ], [ 8.641634364365634, 49.699930372446332 ], [ 8.642066340916998, 49.699489300787782 ], [ 8.640746229630352, 49.698802642117357 ], [ 8.638191257621397, 49.699085413946008 ], [ 8.636103574975873, 49.69942015937233 ], [ 8.633450536312493, 49.699778359776047 ], [ 8.631269753593676, 49.699531273556296 ], [ 8.629755691076213, 49.698742750131252 ], [ 8.627720923266724, 49.699798005962172 ], [ 8.627143018611642, 49.701464655188623 ], [ 8.625529018422858, 49.702903592247338 ], [ 8.625367361624585, 49.703016831364771 ], [ 8.625083351789407, 49.703200775444984 ], [ 8.624856307233987, 49.703263241339329 ], [ 8.62486340875174, 49.703290124782455 ], [ 8.624921838931225, 49.703295054090333 ], [ 8.624936042055928, 49.703348820967946 ], [ 8.624889573417489, 49.703372370874504 ], [ 8.624951428578111, 49.703565334349662 ], [ 8.624857906901427, 49.703688273506515 ], [ 8.624588252396684, 49.70390544339368 ], [ 8.624304197880125, 49.704094125475052 ], [ 8.62369778693424, 49.704382881662553 ], [ 8.62346191848849, 49.704325234191458 ], [ 8.623403340667348, 49.704339263978262 ], [ 8.623538813524123, 49.704462946384652 ], [ 8.623431377819289, 49.704494197658939 ], [ 8.622944339282352, 49.704467332784489 ], [ 8.622341907313373, 49.70455543155218 ], [ 8.622245232166303, 49.704455574673304 ], [ 8.622174423981464, 49.704475884053117 ], [ 8.622217294897476, 49.70460242595113 ], [ 8.622163392684479, 49.704641750772581 ], [ 8.621459318161238, 49.704955457012261 ], [ 8.621196897225108, 49.704866117639277 ], [ 8.621108948664086, 49.704897430489218 ], [ 8.62078476425682, 49.705231335002743 ], [ 8.619120326517482, 49.705758342310119 ], [ 8.61882531063241, 49.705783275781059 ], [ 8.618748931005154, 49.705896162679956 ], [ 8.618326884261748, 49.705988370606043 ], [ 8.618107275352351, 49.706023762124495 ], [ 8.618116251806164, 49.705799276921127 ], [ 8.618408698997856, 49.705787600552249 ], [ 8.618419087460216, 49.705705473448404 ], [ 8.618195598186132, 49.70562257563823 ], [ 8.618608250542819, 49.703949107800156 ], [ 8.619017127117189, 49.704001014263206 ], [ 8.619066887730183, 49.703868455743631 ], [ 8.618775144543271, 49.703791654625768 ], [ 8.618874567500226, 49.703539177645681 ], [ 8.619117735039817, 49.703596858477653 ], [ 8.619235508706501, 49.703489803930708 ], [ 8.618953709692127, 49.703387755527189 ], [ 8.619200383712874, 49.702996720280652 ], [ 8.617624968791366, 49.702587043299253 ], [ 8.617117768761085, 49.702648568813764 ], [ 8.617100763513269, 49.702332507304348 ], [ 8.616886290744771, 49.702344438301758 ], [ 8.616922683843802, 49.702673204179469 ], [ 8.615207685093354, 49.702667519317338 ], [ 8.615164414831826, 49.703210904640294 ], [ 8.614658304934363, 49.703133380690147 ], [ 8.61459803877241, 49.703360703965878 ], [ 8.615006806178116, 49.703425264446871 ], [ 8.615063774949384, 49.703615056942056 ], [ 8.616054526403852, 49.704022832077413 ], [ 8.615604281106362, 49.704274142873629 ], [ 8.615953294351749, 49.704502824373478 ], [ 8.616345370820371, 49.704213398945399 ], [ 8.616946953399539, 49.704544035429336 ], [ 8.616398762865479, 49.70485822636595 ], [ 8.616786464928163, 49.705124954068786 ], [ 8.615691258152024, 49.705601653203402 ], [ 8.615479564096894, 49.705259665062655 ], [ 8.615206109897025, 49.705334598164043 ], [ 8.615359332882878, 49.705676392644143 ], [ 8.614636909674525, 49.705838314016958 ], [ 8.614592830039278, 49.706482817774315 ], [ 8.614280887665762, 49.706494419592069 ], [ 8.613948653665448, 49.706607074568836 ], [ 8.613946449981096, 49.706885151694749 ], [ 8.609541440605472, 49.706895666435592 ], [ 8.609662433569477, 49.706390466064377 ], [ 8.608727315145925, 49.706336750120741 ], [ 8.609147133582091, 49.702596665566851 ], [ 8.606795474345533, 49.701637529780193 ], [ 8.60435635892504, 49.704410070688596 ] ] ], [ [ [ 8.617827778439509, 49.687755195625051 ], [ 8.617931375060531, 49.687588054201285 ], [ 8.617603343700981, 49.68749295975379 ], [ 8.618820645508048, 49.685051084900138 ], [ 8.619122511324967, 49.685064718299564 ], [ 8.619181795332874, 49.684957471133515 ], [ 8.61894851073361, 49.684893502557898 ], [ 8.61942846112737, 49.683931261600492 ], [ 8.619584334892153, 49.683928613651723 ], [ 8.619643591837498, 49.683824526204489 ], [ 8.619468533276683, 49.683789190441473 ], [ 8.619414146282242, 49.683893293804019 ], [ 8.618235736413743, 49.683864134767632 ], [ 8.618246244001313, 49.683766207449366 ], [ 8.618070889623013, 49.683768789354453 ], [ 8.61798229137292, 49.683266047081318 ], [ 8.618104653222577, 49.683189029088062 ], [ 8.618265382514894, 49.683187978959332 ], [ 8.61822668064652, 49.683154670718906 ], [ 8.618036804493528, 49.683146144476552 ], [ 8.616926795032635, 49.683091917166166 ], [ 8.616995072288637, 49.682460130246724 ], [ 8.617094996939894, 49.682449400446416 ], [ 8.617008079167016, 49.682354311120719 ], [ 8.616793197580112, 49.682429441832632 ], [ 8.616655442541663, 49.682605949510027 ], [ 8.616529512291567, 49.683755795722192 ], [ 8.61628608992096, 49.684981093857253 ], [ 8.61623027184236, 49.685884686725217 ], [ 8.615929927368226, 49.686913871231958 ], [ 8.615937079404587, 49.687242541337959 ], [ 8.617827778439509, 49.687755195625051 ] ] ] ] } },
{ "type": "Feature", "properties": { "fid": 1, "id": 1 }, "geometry": { "type": "MultiPolygon", "coordinates": [ [ [ [ 8.568286407267371, 49.708551983322188 ], [ 8.569420838793073, 49.706958083213152 ], [ 8.571041165998722, 49.707402289383104 ], [ 8.570954666609273, 49.707633706235654 ], [ 8.572948378141367, 49.70847532803073 ], [ 8.571937299582354, 49.709396232071988 ], [ 8.572913574296297, 49.709760081836038 ], [ 8.572633244100883, 49.710052932669512 ], [ 8.568286407267371, 49.708551983322188 ] ] ] ] } },
{ "type": "Feature", "properties": { "fid": 2, "id": 2 }, "geometry": { "type": "MultiPolygon", "coordinates": [ [ [ [ 8.613755117907973, 49.70103241784058 ], [ 8.614151235623297, 49.699000243074849 ], [ 8.616362291479053, 49.699410494838027 ], [ 8.615575629373875, 49.700934192739219 ], [ 8.615407807900523, 49.700900455043538 ], [ 8.615266448926134, 49.701217570984575 ], [ 8.613755117907973, 49.70103241784058 ] ] ] ] } },
{ "type": "Feature", "properties": { "fid": 3, "id": 3 }, "geometry": { "type": "MultiPolygon", "coordinates": [ [ [ [ 8.614031976561646, 49.701139992587834 ], [ 8.614048620020592, 49.700884083680663 ], [ 8.613668756252288, 49.700863856937474 ], [ 8.613943484875007, 49.699395347669743 ], [ 8.610394349777877, 49.699080098113434 ], [ 8.60968221594295, 49.702225114604268 ], [ 8.609017644861149, 49.704896277858211 ], [ 8.609003493289217, 49.706659538898641 ], [ 8.614469747434933, 49.706772663768319 ], [ 8.614507384632363, 49.705711011885668 ], [ 8.615854126955881, 49.705469002255484 ], [ 8.616558742240812, 49.705092130836285 ], [ 8.617116579783422, 49.704790611250651 ], [ 8.614903622534486, 49.703664616347595 ], [ 8.615102477721951, 49.702546618666986 ], [ 8.616885682214441, 49.702552530715828 ], [ 8.61771904208309, 49.702526843753738 ], [ 8.619309047720344, 49.702939727470813 ], [ 8.618657609068224, 49.703999362081134 ], [ 8.618158575476311, 49.705955974622618 ], [ 8.618158575476311, 49.706092850484659 ], [ 8.618250538946118, 49.706105682596728 ], [ 8.61829545133835, 49.705977361476066 ], [ 8.618746713946006, 49.705870427208851 ], [ 8.618804993121639, 49.705793434536446 ], [ 8.618834400045124, 49.705809474676528 ], [ 8.619001217501982, 49.705682222898545 ], [ 8.619918627043388, 49.705368649248307 ], [ 8.620694893069048, 49.705172110713114 ], [ 8.621456830327499, 49.704937599530048 ], [ 8.621867803039599, 49.704720898395124 ], [ 8.622469087303104, 49.704466895648892 ], [ 8.622981269797069, 49.704392722720641 ], [ 8.623463191048655, 49.704451171320201 ], [ 8.623785863429642, 49.704310017522772 ], [ 8.624328738178608, 49.704046335228128 ], [ 8.624666679519985, 49.703819907097277 ], [ 8.625057454349852, 49.703375605432704 ], [ 8.625022007043253, 49.703233288338318 ], [ 8.625205881989627, 49.703082200977214 ], [ 8.625426224314184, 49.702940711417803 ], [ 8.625353651770146, 49.702874115601489 ], [ 8.62520734048851, 49.702892602565463 ], [ 8.624935474792057, 49.70308132566111 ], [ 8.624542543248763, 49.702857268922138 ], [ 8.623996727672129, 49.702556873370661 ], [ 8.623794769171358, 49.702210191814508 ], [ 8.623746869675161, 49.701788169173525 ], [ 8.623763315953626, 49.70155121862345 ], [ 8.624568482222028, 49.701387928498633 ], [ 8.624467740434874, 49.701183778481763 ], [ 8.62425570345308, 49.700747472513683 ], [ 8.624899362756995, 49.700676877597928 ], [ 8.625310381380048, 49.700447524069013 ], [ 8.625156010841545, 49.700247941197013 ], [ 8.624064189236185, 49.700310763665556 ], [ 8.623807186739858, 49.699655328979631 ], [ 8.623787971486999, 49.699304500552124 ], [ 8.623808577989873, 49.698710946318229 ], [ 8.623730629766014, 49.698710693115359 ], [ 8.623692793775223, 49.699194058527496 ], [ 8.621879954128238, 49.699388348807382 ], [ 8.621908938812171, 49.698478347705077 ], [ 8.622142243978377, 49.696663657290806 ], [ 8.622205406176963, 49.696057132587498 ], [ 8.620451814902346, 49.69603243892891 ], [ 8.619253649612375, 49.69600006578257 ], [ 8.617807783636579, 49.695872061428105 ], [ 8.61569205569387, 49.695438452797802 ], [ 8.615626975105972, 49.695634154555428 ], [ 8.61580858942528, 49.695671150064918 ], [ 8.615707692581219, 49.695872943753038 ], [ 8.615626975105972, 49.695849401156089 ], [ 8.615583253140212, 49.695977203825237 ], [ 8.615657244159189, 49.695983930281507 ], [ 8.615579889912077, 49.696145365231999 ], [ 8.615482356296152, 49.696111732950648 ], [ 8.615441997558529, 49.696212629794708 ], [ 8.615830875146974, 49.696367969982731 ], [ 8.616309498868061, 49.696834084820154 ], [ 8.616728181108567, 49.697489602637134 ], [ 8.616751968357496, 49.698181733505479 ], [ 8.616424913718136, 49.698882183077963 ], [ 8.616083831611297, 49.699506743844346 ], [ 8.616346388457654, 49.699573974988233 ], [ 8.615707752329765, 49.700861159933815 ], [ 8.615401416566057, 49.700784301838659 ], [ 8.615429226754873, 49.700964517254206 ], [ 8.61523659927083, 49.701295683158378 ], [ 8.614031976561646, 49.701139992587834 ] ] ] ] } },
{ "type": "Feature", "properties": { "fid": 4, "id": 4 }, "geometry": { "type": "MultiPolygon", "coordinates": [ [ [ [ 8.620378608114986, 49.692297011286591 ], [ 8.617312110175753, 49.691993034030752 ], [ 8.61828980075386, 49.690308788883421 ], [ 8.615575416183933, 49.689844762328526 ], [ 8.615723933905768, 49.689541889442857 ], [ 8.616336764775745, 49.689657683351257 ], [ 8.616433312979137, 49.689458919363666 ], [ 8.616522777903164, 49.689231691294388 ], [ 8.616612204707314, 49.689009203112178 ], [ 8.61677458041965, 49.688801176531364 ], [ 8.616863371936198, 49.688659267581755 ], [ 8.616951939454834, 49.688545798365354 ], [ 8.617077558334886, 49.688366090315895 ], [ 8.617276311341463, 49.688177143646492 ], [ 8.617394175601676, 49.688054290712564 ], [ 8.61749739002472, 49.687936129364658 ], [ 8.617585954746898, 49.687822659642549 ], [ 8.617630831824455, 49.687690085255653 ], [ 8.61771965598051, 49.68754343564261 ], [ 8.617952778257434, 49.687629526545749 ], [ 8.618193392976055, 49.687691941221104 ], [ 8.618463121013294, 49.687768671583221 ], [ 8.618688680135058, 49.687887916722083 ], [ 8.619031211045165, 49.687998066069746 ], [ 8.619263967611642, 49.688131554029631 ], [ 8.619468056170343, 49.688193845963688 ], [ 8.619621113686053, 49.688241749670929 ], [ 8.61974520600444, 49.688256377441789 ], [ 8.619722252427962, 49.688389024617976 ], [ 8.619351987925047, 49.689022980392465 ], [ 8.618879166344538, 49.689689778106782 ], [ 8.618679486326551, 49.689997226664104 ], [ 8.618404068212765, 49.690645711760816 ], [ 8.619367184835445, 49.690819524259993 ], [ 8.620535628004882, 49.690899199884846 ], [ 8.620378608114986, 49.692297011286591 ] ] ] ] } },
{ "type": "Feature", "properties": { "fid": 5, "id": 5 }, "geometry": { "type": "MultiPolygon", "coordinates": [ [ [ [ 8.61815813735935, 49.690327315226433 ], [ 8.616241432183665, 49.690011294212731 ], [ 8.616132530617589, 49.690232137496984 ], [ 8.61586810680782, 49.690408224115941 ], [ 8.615545030330219, 49.690609395920028 ], [ 8.615522655167705, 49.690975888535966 ], [ 8.615321431338739, 49.691784195490484 ], [ 8.615269827284816, 49.692150590900162 ], [ 8.615121298703194, 49.692453463040813 ], [ 8.615040764890807, 49.692781841466811 ], [ 8.614988658381563, 49.69321143618388 ], [ 8.614907822779221, 49.693577734168535 ], [ 8.614798357660737, 49.693868095473015 ], [ 8.615119662173115, 49.693894444116417 ], [ 8.615635618891277, 49.693946718479765 ], [ 8.616151477178184, 49.694011630447299 ], [ 8.616462792128155, 49.694069542830142 ], [ 8.616601624550356, 49.693760316844248 ], [ 8.616828733657101, 49.693375541373427 ], [ 8.617114194127103, 49.693003598587239 ], [ 8.61744045486375, 49.692397945533521 ], [ 8.617657461729801, 49.692057375810144 ], [ 8.617776102666586, 49.691836563306815 ], [ 8.617668939050873, 49.691836209592715 ], [ 8.617453024532738, 49.692037740379774 ], [ 8.617238845319738, 49.692018072392706 ], [ 8.61815813735935, 49.690327315226433 ] ] ] ] } },
{ "type": "Feature", "properties": { "fid": 6, "id": 6 }, "geometry": { "type": "MultiPolygon", "coordinates": [ [ [ [ 8.612213110800045, 49.676127195836905 ], [ 8.612766423176081, 49.675235908333526 ], [ 8.612573554511847, 49.674995098076302 ], [ 8.612712105637886, 49.674717475503954 ], [ 8.613072889597277, 49.67466180027796 ], [ 8.613761785473812, 49.674986426912753 ], [ 8.614159675303565, 49.675164717092606 ], [ 8.614532766296588, 49.675130902544716 ], [ 8.614716930216208, 49.675396171089872 ], [ 8.613012745523049, 49.676333553184776 ], [ 8.612213110800045, 49.676127195836905 ] ] ] ] } },
{ "type": "Feature", "properties": { "fid": 7, "id": 7 }, "geometry": { "type": "MultiPolygon", "coordinates": [ [ [ [ 8.626415494978712, 49.675785268345585 ], [ 8.625325325583121, 49.675070731269024 ], [ 8.626376144892491, 49.674565355415893 ], [ 8.627386153205753, 49.674300003849567 ], [ 8.627471900601778, 49.673911591373809 ], [ 8.628707352837905, 49.674092522844902 ], [ 8.628705644801363, 49.674316882175802 ], [ 8.628869663039787, 49.674519652258077 ], [ 8.628994799792524, 49.674712817340058 ], [ 8.629378735553463, 49.674812008800508 ], [ 8.629518579285261, 49.674992580102085 ], [ 8.629372137145841, 49.675039512526737 ], [ 8.628986709169851, 49.67513624043783 ], [ 8.629203958708757, 49.675383421480142 ], [ 8.629047487781483, 49.675468242185239 ], [ 8.628730131907679, 49.675577827536017 ], [ 8.628432011717186, 49.675719074405073 ], [ 8.628197385816117, 49.675835243838939 ], [ 8.627909242602339, 49.675944920721882 ], [ 8.627587445934337, 49.675997607466691 ], [ 8.627251788802557, 49.675952286634384 ], [ 8.627072535837623, 49.675831626990629 ], [ 8.626813703799327, 49.675928755268373 ], [ 8.626638402180481, 49.675928190227097 ], [ 8.626449218236447, 49.675832778134179 ], [ 8.626415494978712, 49.675785268345585 ] ] ] ] } },
{ "type": "Feature", "properties": { "fid": 8, "id": 8 }, "geometry": { "type": "MultiPolygon", "coordinates": [ [ [ [ 8.604318448054102, 49.684041810566768 ], [ 8.603384998258807, 49.6838363735028 ], [ 8.602547003476955, 49.683871421399004 ], [ 8.601241668211507, 49.683879574536014 ], [ 8.601149122830522, 49.683285163774585 ], [ 8.601296341840067, 49.681958443503923 ], [ 8.601258931758959, 49.681768710795289 ], [ 8.602156053873969, 49.68164539355034 ], [ 8.602662178194336, 49.681691372049542 ], [ 8.603012307320355, 49.681755774093553 ], [ 8.603314148076249, 49.681769448643905 ], [ 8.603518690572145, 49.681770149083626 ], [ 8.60398678094397, 49.681702229231497 ], [ 8.604610352765487, 49.681679079334664 ], [ 8.605145802508854, 49.681712506833207 ], [ 8.60580833437028, 49.681689483313498 ], [ 8.606422573237092, 49.681615730852471 ], [ 8.607036300914029, 49.681605174699207 ], [ 8.60759209644154, 49.681531217713918 ], [ 8.608060128136646, 49.681469601333291 ], [ 8.608430656626643, 49.681420293691467 ], [ 8.608937545012372, 49.681371445398518 ], [ 8.609376150876871, 49.681335004852706 ], [ 8.609658814393118, 49.681310677403005 ], [ 8.609635779843758, 49.681146276382194 ], [ 8.609762501027461, 49.681134063195508 ], [ 8.609785611865975, 49.681288984253257 ], [ 8.611530663651402, 49.681095766850795 ], [ 8.611492836697867, 49.680953437034219 ], [ 8.611673126722875, 49.680941401452181 ], [ 8.611686805540739, 49.68105836972336 ], [ 8.612798067474191, 49.680948328137745 ], [ 8.612794176148853, 49.680825072592519 ], [ 8.61289654587914, 49.680812774556514 ], [ 8.612885952956695, 49.680920181358346 ], [ 8.614523615523199, 49.680755000435781 ], [ 8.614495320120751, 49.680637983845344 ], [ 8.614578134297213, 49.680635099420613 ], [ 8.614611424740467, 49.680736332288312 ], [ 8.616561249034552, 49.680508959640989 ], [ 8.616525742904381, 49.680688965777797 ], [ 8.616460270961273, 49.680963674604087 ], [ 8.616459995679131, 49.681617807055133 ], [ 8.616352602628146, 49.68226842456798 ], [ 8.616454525044002, 49.682932375568441 ], [ 8.616419387087353, 49.683684354294975 ], [ 8.615969995605447, 49.686324677288809 ], [ 8.615117418497302, 49.690670090585613 ], [ 8.613885131768354, 49.691272720292766 ], [ 8.613613857926591, 49.691082212032683 ], [ 8.609759423936884, 49.693079086361273 ], [ 8.604318448054102, 49.684041810566768 ] ] ] ] } },
{ "type": "Feature", "properties": { "fid": 9, "id": 9 }, "geometry": { "type": "MultiPolygon", "coordinates": [ [ [ [ 8.618896171191073, 49.683348084284937 ], [ 8.618347418781914, 49.683144033137047 ], [ 8.61818118839129, 49.683225646860194 ], [ 8.61805528073487, 49.683133589847593 ], [ 8.618065491470796, 49.683073582316098 ], [ 8.616965000584178, 49.683047827332821 ], [ 8.617028307865622, 49.682428664207222 ], [ 8.616926059898493, 49.682425165977534 ], [ 8.616936594615947, 49.682324078777398 ], [ 8.617062704091515, 49.680529579232285 ], [ 8.617095199283138, 49.680112558090556 ], [ 8.617301967243542, 49.67982883568019 ], [ 8.617371514300947, 49.678413356054676 ], [ 8.617673955140175, 49.677106087425464 ], [ 8.619404062682134, 49.673812675737942 ], [ 8.619745108974566, 49.673788515543819 ], [ 8.619866643738227, 49.673814195096192 ], [ 8.619817507609524, 49.673870915026768 ], [ 8.621624982151669, 49.674379285605447 ], [ 8.621678986024355, 49.674322580816742 ], [ 8.621805343467578, 49.674354594220986 ], [ 8.621751168152064, 49.674433418984151 ], [ 8.623057185621825, 49.67493380802668 ], [ 8.623111164030698, 49.67488026256126 ], [ 8.623213103695434, 49.674921675157172 ], [ 8.623598199879865, 49.674869206318732 ], [ 8.623855667833809, 49.674949044566091 ], [ 8.623800325138777, 49.675179549725712 ], [ 8.623461822702954, 49.675503936536579 ], [ 8.623210941937165, 49.675831767530674 ], [ 8.622799565157969, 49.676762648078878 ], [ 8.622786452923517, 49.677198694551457 ], [ 8.623599019990101, 49.677286660223928 ], [ 8.623586504454455, 49.677330860473205 ], [ 8.618896171191073, 49.683348084284937 ] ] ], [ [ [ 8.623590329328382, 49.677293717438133 ], [ 8.62378643188072, 49.677320820220238 ], [ 8.623811686975658, 49.677321692278014 ], [ 8.623712160910571, 49.677597874729678 ], [ 8.623617113155545, 49.677924632694278 ], [ 8.623498766974171, 49.678745865097277 ], [ 8.623526912147151, 49.678884999477184 ], [ 8.623466132308073, 49.679188168152521 ], [ 8.623522862272791, 49.679409557152773 ], [ 8.623580519704882, 49.679510866658156 ], [ 8.623734452837958, 49.679757851964112 ], [ 8.623849330859372, 49.680017350467757 ], [ 8.623740778895403, 49.68020028159507 ], [ 8.623564681336429, 49.680300831399606 ], [ 8.623778275328943, 49.680390007292957 ], [ 8.624098960114717, 49.680485850569632 ], [ 8.62435984346819, 49.680758462607237 ], [ 8.624543053094047, 49.68099922160674 ], [ 8.624736442323602, 49.681183132136518 ], [ 8.625008239567009, 49.681304094966023 ], [ 8.625348412931427, 49.681399997862123 ], [ 8.625630147100976, 49.681495710859835 ], [ 8.625814917799833, 49.681534228770573 ], [ 8.627029964589891, 49.681860474727515 ], [ 8.627243716721258, 49.681930684321266 ], [ 8.62678104232366, 49.682567527013191 ], [ 8.625978019015287, 49.684080186517491 ], [ 8.625872919516748, 49.684130408044382 ], [ 8.625812622734246, 49.684054371742768 ], [ 8.625567873863918, 49.683897157607767 ], [ 8.625228022734758, 49.683757015579047 ], [ 8.624479461475556, 49.683564987018926 ], [ 8.623983037107669, 49.683519135415267 ], [ 8.623910330771212, 49.683473868433431 ], [ 8.623891111856468, 49.683439835343407 ], [ 8.623735465434827, 49.6834132592437 ], [ 8.622789989471968, 49.683179498989972 ], [ 8.622502088132137, 49.685137799738833 ], [ 8.622509235349739, 49.685472789607694 ], [ 8.622450398515459, 49.685523158805516 ], [ 8.622418043153365, 49.685927541230633 ], [ 8.622399735866688, 49.686404650835136 ], [ 8.622362876066017, 49.686761617579698 ], [ 8.622371075076011, 49.686960728167286 ], [ 8.622352277285142, 49.687501037297103 ], [ 8.622335387458277, 49.688423719905792 ], [ 8.621381226623535, 49.688355823287885 ], [ 8.62133462332929, 49.688398331739847 ], [ 8.621259102433253, 49.688401244854809 ], [ 8.619756752903077, 49.688361561429303 ], [ 8.619717811735866, 49.688358273510822 ], [ 8.619605760356885, 49.688361065592964 ], [ 8.619592405817977, 49.688199858641156 ], [ 8.617887616624147, 49.687578034645298 ], [ 8.61781349160746, 49.687713672680381 ], [ 8.617614315022546, 49.687646653948136 ], [ 8.618494596330176, 49.685949443987774 ], [ 8.618851694726308, 49.685129003625441 ], [ 8.61908587822491, 49.684766366927342 ], [ 8.619430251861129, 49.684013824129458 ], [ 8.61947521901647, 49.683868608992512 ], [ 8.618136214390539, 49.683823120847876 ], [ 8.618008925926175, 49.683285490324394 ], [ 8.618175775483346, 49.683124877304543 ], [ 8.623590329328382, 49.677293717438133 ] ] ] ] } },
{ "type": "Feature", "properties": { "fid": 10, "id": 10 }, "geometry": { "type": "MultiPolygon", "coordinates": [ [ [ [ 8.616843724112732, 49.677858969767492 ], [ 8.616764070916991, 49.678079910847856 ], [ 8.616714231416319, 49.678225108954159 ], [ 8.61659497316794, 49.678528080537383 ], [ 8.616351784341594, 49.678489354367052 ], [ 8.616049860513513, 49.67848835376396 ], [ 8.615864810433674, 49.678487740102042 ], [ 8.615798969371815, 49.678500161953487 ], [ 8.615635895350898, 49.678491720665342 ], [ 8.615538587767496, 49.67848033743207 ], [ 8.615405691792931, 49.678350333452762 ], [ 8.615229542591591, 49.678147504091847 ], [ 8.615009779749327, 49.677917668909082 ], [ 8.615356873094376, 49.67774817867015 ], [ 8.615580049564977, 49.677545095416434 ], [ 8.615128980749775, 49.677314492389684 ], [ 8.61473588953606, 49.677142541723811 ], [ 8.614532265377068, 49.677028101723764 ], [ 8.614561832592155, 49.676983959197209 ], [ 8.614664044001827, 49.676990619473649 ], [ 8.614747251393396, 49.676937175167943 ], [ 8.616066107143368, 49.67518771763536 ], [ 8.616340882223184, 49.674923182567127 ], [ 8.616214651263938, 49.674875363280464 ], [ 8.615904927343596, 49.674631011180018 ], [ 8.61517572998585, 49.674167220354015 ], [ 8.614666649813888, 49.67388744150842 ], [ 8.613687335636088, 49.673343806985145 ], [ 8.612967251138757, 49.674497987795775 ], [ 8.613034845214957, 49.674570895255989 ], [ 8.612638621367164, 49.675410148741044 ], [ 8.61230815328728, 49.675326881113897 ], [ 8.608100326793625, 49.6741814132711 ], [ 8.607920662407077, 49.674724336958874 ], [ 8.607648334241841, 49.674679173664614 ], [ 8.606920478093308, 49.67436069850352 ], [ 8.606429465884547, 49.674864641823405 ], [ 8.605605585129458, 49.675582334523369 ], [ 8.604381049094744, 49.675262150869088 ], [ 8.60264353574337, 49.678138184027844 ], [ 8.601678114266708, 49.677986344320637 ], [ 8.601608751202647, 49.678131468817213 ], [ 8.599235820540192, 49.677699832338057 ], [ 8.599295682146995, 49.676341210269172 ], [ 8.599432931177619, 49.675046056939678 ], [ 8.600170905554466, 49.672937680762651 ], [ 8.600845629974568, 49.671410534255038 ], [ 8.601440241098809, 49.670148553769579 ], [ 8.602244308927945, 49.667975608718365 ], [ 8.602169063415088, 49.667948489621139 ], [ 8.602186400139001, 49.667912208343417 ], [ 8.603051443011259, 49.668109521279021 ], [ 8.60606497755205, 49.667841725627937 ], [ 8.607142090914145, 49.667099607625403 ], [ 8.608723673157536, 49.666586710451426 ], [ 8.610345583604616, 49.665896963265226 ], [ 8.612977470748479, 49.665539220895596 ], [ 8.615138362595584, 49.665634904870387 ], [ 8.616577140740004, 49.66593040445153 ], [ 8.617800929497792, 49.666326299075109 ], [ 8.618732624214349, 49.666721219381778 ], [ 8.6193713301014, 49.667228932082999 ], [ 8.620067193515984, 49.667901152475835 ], [ 8.620566654611558, 49.668787610071334 ], [ 8.620755607624794, 49.669534005774629 ], [ 8.620788859111837, 49.670267251026594 ], [ 8.616843724112732, 49.677858969767492 ] ] ] ] } },
{ "type": "Feature", "properties": { "fid": 11, "id": 11 }, "geometry": { "type": "MultiPolygon", "coordinates": [ [ [ [ 8.582791751245509, 49.670727524075375 ], [ 8.58350690979119, 49.669086860541128 ], [ 8.584732444909502, 49.666967692259355 ], [ 8.593163418138776, 49.669500397297178 ], [ 8.595764536028796, 49.665843821382055 ], [ 8.601810174063324, 49.667776612181072 ], [ 8.602160279587997, 49.667831536752793 ], [ 8.602306056224807, 49.667866798284109 ], [ 8.602177744202276, 49.668078082422852 ], [ 8.600951679783341, 49.670946369302335 ], [ 8.600097634737782, 49.672965868393611 ], [ 8.599689543902718, 49.67403888217337 ], [ 8.5993622007284, 49.674764566116146 ], [ 8.599267697562111, 49.675598497336615 ], [ 8.599140596494987, 49.677435637117888 ], [ 8.599183150449631, 49.677590627723497 ], [ 8.599358171900239, 49.677625994094839 ], [ 8.599333226532435, 49.677698589346747 ], [ 8.599167918159626, 49.677666416625208 ], [ 8.599092111783138, 49.678594424000799 ], [ 8.597861080711789, 49.679057845762763 ], [ 8.593716659102473, 49.678487208464915 ], [ 8.586854104118196, 49.676870255128456 ], [ 8.582791751245509, 49.670727524075375 ] ] ] ] } },
{ "type": "Feature", "properties": { "fid": 12, "id": 12 }, "geometry": { "type": "MultiPolygon", "coordinates": [ [ [ [ 8.671906938519658, 49.68449788929243 ], [ 8.671899111725146, 49.684213461736142 ], [ 8.671881459322798, 49.683941646568051 ], [ 8.672057768347264, 49.683796783187439 ], [ 8.672272911151575, 49.683670989795502 ], [ 8.671991284927088, 49.683543790094809 ], [ 8.672285455450787, 49.683253897335881 ], [ 8.672627857841187, 49.683033661499259 ], [ 8.672852566598909, 49.682933174542313 ], [ 8.673533126906527, 49.683124698630316 ], [ 8.673454525932311, 49.683225598964263 ], [ 8.673540920772394, 49.683415446150043 ], [ 8.674036124077348, 49.683650685455468 ], [ 8.674551024338797, 49.683854377383533 ], [ 8.675094308520972, 49.684184549035862 ], [ 8.675783290946239, 49.684578327277237 ], [ 8.676326507627508, 49.684921133143149 ], [ 8.676333647054337, 49.685313000433212 ], [ 8.676128458281175, 49.685407228577212 ], [ 8.676110970796117, 49.685473540911353 ], [ 8.676052504179252, 49.685476537445354 ], [ 8.675522554574673, 49.685700998100863 ], [ 8.674552675478836, 49.685066264887368 ], [ 8.673863104262081, 49.684760959364006 ], [ 8.67328882108125, 49.684696139531127 ], [ 8.672149872593335, 49.684585478901653 ], [ 8.671906938519658, 49.68449788929243 ] ] ] ] } }
]
}
